{
    "links": {
        "self": "http://www.neowsapp.com/rest/v1/neo/3764724?api_key=iIulBulltgU6a56xZRHN4H3l9WmuAYTsLGpBGhQ2"
    },
    "id": "3764724",
    "neo_reference_id": "3764724",
    "name": "(2016 WT3)",
    "designation": "2016 WT3",
    "nasa_jpl_url": "http://ssd.jpl.nasa.gov/sbdb.cgi?sstr=3764724",
    "absolute_magnitude_h": 28.6,
    "estimated_diameter": {
        "kilometers": {
            "estimated_diameter_min": 0.0050647146,
            "estimated_diameter_max": 0.0113250461
        },
        "meters": {
            "estimated_diameter_min": 5.0647145883,
            "estimated_diameter_max": 11.3250461062
        },
        "miles": {
            "estimated_diameter_min": 0.0031470668,
            "estimated_diameter_max": 0.0070370552
        },
        "feet": {
            "estimated_diameter_min": 16.61651821,
            "estimated_diameter_max": 37.155664267
        }
    },
    "is_potentially_hazardous_asteroid": false,
    "close_approach_data": [
        {
            "close_approach_date": "2016-11-21",
            "close_approach_date_full": "2016-Nov-21 12:54",
            "epoch_date_close_approach": 1479732840000,
            "relative_velocity": {
                "kilometers_per_second": "14.5221170208",
                "kilometers_per_hour": "52279.6212747436",
                "miles_per_hour": "32484.5235637427"
            },
            "miss_distance": {
                "astronomical": "0.0024284912",
                "lunar": "0.9446830768",
                "kilometers": "363297.110833744",
                "miles": "225742.3568599072"
            },
            "orbiting_body": "Earth"
        },
        {
            "close_approach_date": "2016-11-21",
            "close_approach_date_full": "2016-Nov-21 14:25",
            "epoch_date_close_approach": 1479738300000,
            "relative_velocity": {
                "kilometers_per_second": "15.4767139655",
                "kilometers_per_hour": "55716.1702759249",
                "miles_per_hour": "34619.8614695046"
            },
            "miss_distance": {
                "astronomical": "0.0042048274",
                "lunar": "1.6356778586",
                "kilometers": "629033.222757638",
                "miles": "390863.1200578844"
            },
            "orbiting_body": "Moon"
        },
        {
            "close_approach_date": "2096-06-28",
            "close_approach_date_full": "2096-Jun-28 08:59",
            "epoch_date_close_approach": 3991712340000,
            "relative_velocity": {
                "kilometers_per_second": "13.8370870747",
                "kilometers_per_hour": "49813.5134688347",
                "miles_per_hour": "30952.1800773434"
            },
            "miss_distance": {
                "astronomical": "0.0575568138",
                "lunar": "22.3896005682",
                "kilometers": "8610376.748466606",
                "miles": "5350240.0175709228"
            },
            "orbiting_body": "Mars"
        },
        {
            "close_approach_date": "2101-07-16",
            "close_approach_date_full": "2101-Jul-16 16:54",
            "epoch_date_close_approach": 4150976040000,
            "relative_velocity": {
                "kilometers_per_second": "15.3359047624",
                "kilometers_per_hour": "55209.2571446843",
                "miles_per_hour": "34304.8853630401"
            },
            "miss_distance": {
                "astronomical": "0.0399843939",
                "lunar": "15.5539292271",
                "kilometers": "5981580.160680993",
                "miles": "3716781.5623959834"
            },
            "orbiting_body": "Earth"
        }
    ],
    "orbital_data": {
        "orbit_id": "2",
        "orbit_determination_date": "2017-04-06 08:22:00",
        "first_observation_date": "2016-11-23",
        "last_observation_date": "2016-11-25",
        "data_arc_in_days": 2,
        "observations_used": 23,
        "orbit_uncertainty": "8",
        "minimum_orbit_intersection": ".00221123",
        "jupiter_tisserand_invariant": "3.649",
        "epoch_osculation": "2457716.5",
        "eccentricity": ".5901043643162474",
        "semi_major_axis": "1.957090377330103",
        "inclination": "1.397138512381373",
        "ascending_node_longitude": "54.14271289011023",
        "orbital_period": "1000.033962009761",
        "perihelion_distance": ".8022028043062778",
        "perihelion_argument": "304.7861510299847",
        "aphelion_distance": "3.111977950353928",
        "perihelion_time": "2457673.600430080368",
        "mean_anomaly": "15.44332068485968",
        "mean_motion": ".3599877740917025",
        "equinox": "J2000",
        "orbit_class": {
            "orbit_class_type": "APO",
            "orbit_class_description": "Near-Earth asteroid orbits which cross the Earth’s orbit similar to that of 1862 Apollo",
            "orbit_class_range": "a (semi-major axis) > 1.0 AU; q (perihelion) < 1.017 AU"
        }
    },
    "is_sentry_object": false
}